start=new Date('2021-11-04T00:00:00.000Z').valueOf();
sats=[{"ECCENTRICITY":"0.00018610","MEAN_ANOMALY":"287.9881","LAUNCH_DATE":"2020-01-29","MEAN_MOTION_DDOT":"0.0000000000000","PERIAPSIS":"545.907","INCLINATION":"53.0526","SEMIMAJOR_AXIS":"6925.331","OBJECT_TYPE":"PAYLOAD","ELEMENT_SET_NO":"999","EPOCH":"2021-11-03T10:41:29.934240","REV_AT_EPOCH":"9722","MEAN_MOTION_DOT":"0.00001991","REF_FRAME":"TEME","CLASSIFICATION_TYPE":"U","OBJECT_ID":"2020-006G","DECAY_DATE":null,"OBJECT_NAME":"STARLINK-1140","MEAN_MOTION":"15.06405869","FILE":"3199758","COUNTRY_CODE":"US","MEAN_ELEMENT_THEORY":"SGP4","CENTER_NAME":"EARTH","BSTAR":"0.00015248000000","ARG_OF_PERICENTER":"72.1311","NORAD_CAT_ID":"45050","TIME_SYSTEM":"UTC","EPHEMERIS_TYPE":"0","PERIOD":"95.592","TLE_LINE2":"2 45050  53.0526 212.0449 0001861  72.1311 287.9881 15.06405869 97227","RCS_SIZE":"LARGE","SITE":"AFETR","GP_ID":"188826344","RA_OF_ASC_NODE":"212.0449","TLE_LINE1":"1 45050U 20006G   21307.44548535  .00001991  00000-0  15248-3 0  9996","APOAPSIS":"548.484"},{"LAUNCH_DATE":"2020-01-29","MEAN_ANOMALY":"275.7550","ECCENTRICITY":"0.00016860","PERIAPSIS":"545.014","MEAN_MOTION_DDOT":"0.0000000000000","EPOCH":"2021-11-03T21:41:08.999232","ELEMENT_SET_NO":"999","SEMIMAJOR_AXIS":"6924.317","OBJECT_TYPE":"PAYLOAD","INCLINATION":"53.0531","MEAN_MOTION_DOT":"0.00012164","REF_FRAME":"TEME","REV_AT_EPOCH":"9729","FILE":"3200165","MEAN_MOTION":"15.06736769","DECAY_DATE":null,"OBJECT_NAME":"STARLINK-1141","CLASSIFICATION_TYPE":"U","OBJECT_ID":"2020-006H","NORAD_CAT_ID":"45051","ARG_OF_PERICENTER":"84.3631","BSTAR":"0.00082658000000","CENTER_NAME":"EARTH","COUNTRY_CODE":"US","MEAN_ELEMENT_THEORY":"SGP4","TIME_SYSTEM":"UTC","TLE_LINE1":"1 45051U 20006H   21307.90357638  .00012164  00000-0  82658-3 0  9993","APOAPSIS":"547.349","RA_OF_ASC_NODE":"209.9483","GP_ID":"188857869","SITE":"AFETR","TLE_LINE2":"2 45051  53.0531 209.9483 0001686  84.3631 275.7550 15.06736769 97293","RCS_SIZE":"LARGE","PERIOD":"95.571","EPHEMERIS_TYPE":"0"},{"APOAPSIS":"548.366","TLE_LINE1":"1 45052U 20006J   21307.45286233 -.00000353  00000-0 -47762-5 0  9994","RA_OF_ASC_NODE":"212.0116","TLE_LINE2":"2 45052  53.0538 212.0116 0001649  61.2820 298.8334 15.06396498 97222","RCS_SIZE":"LARGE","GP_ID":"188825363","SITE":"AFETR","PERIOD":"95.592","EPHEMERIS_TYPE":"0","TIME_SYSTEM":"UTC","BSTAR":"-0.00000477620000","ARG_OF_PERICENTER":"61.2820","NORAD_CAT_ID":"45052","COUNTRY_CODE":"US","CENTER_NAME":"EARTH","MEAN_ELEMENT_THEORY":"SGP4","FILE":"3199758","MEAN_MOTION":"15.06396498","OBJECT_NAME":"STARLINK-1148","DECAY_DATE":null,"CLASSIFICATION_TYPE":"U","OBJECT_ID":"2020-006J","MEAN_MOTION_DOT":"-0.00000353","REF_FRAME":"TEME","REV_AT_EPOCH":"9722","EPOCH":"2021-11-03T10:52:07.305312","ELEMENT_SET_NO":"999","INCLINATION":"53.0538","OBJECT_TYPE":"PAYLOAD","SEMIMAJOR_AXIS":"6925.359","PERIAPSIS":"546.082","MEAN_MOTION_DDOT":"0.0000000000000","LAUNCH_DATE":"2020-01-29","MEAN_ANOMALY":"298.8334","ECCENTRICITY":"0.00016490"},{"MEAN_MOTION_DDOT":"0.0000000000000","PERIAPSIS":"542.867","MEAN_ANOMALY":"276.3139","LAUNCH_DATE":"2020-01-29","ECCENTRICITY":"0.00013790","MEAN_MOTION_DOT":"0.00012813","REF_FRAME":"TEME","REV_AT_EPOCH":"9723","ELEMENT_SET_NO":"999","EPOCH":"2021-11-03T11:20:48.967872","INCLINATION":"53.0005","OBJECT_TYPE":"PAYLOAD","SEMIMAJOR_AXIS":"6921.957","ARG_OF_PERICENTER":"83.8007","BSTAR":"0.00085172000000","NORAD_CAT_ID":"45053","MEAN_ELEMENT_THEORY":"SGP4","COUNTRY_CODE":"US","CENTER_NAME":"EARTH","MEAN_MOTION":"15.07507308","FILE":"3199758","CLASSIFICATION_TYPE":"U","OBJECT_ID":"2020-006K","DECAY_DATE":null,"OBJECT_NAME":"STARLINK-1155","RA_OF_ASC_NODE":"210.1828","TLE_LINE1":"1 45053U 20006K   21307.47278898  .00012813  00000-0  85172-3 0  9992","APOAPSIS":"544.776","EPHEMERIS_TYPE":"0","PERIOD":"95.522","TLE_LINE2":"2 45053  53.0005 210.1828 0001379  83.8007 276.3139 15.07507308 97238","RCS_SIZE":"LARGE","GP_ID":"188826115","SITE":"AFETR","TIME_SYSTEM":"UTC"},{"ELEMENT_SET_NO":"999","EPOCH":"2021-11-03T10:46:49.985760","INCLINATION":"53.0558","OBJECT_TYPE":"PAYLOAD","SEMIMAJOR_AXIS":"6925.396","MEAN_MOTION_DOT":"-0.00002025","REF_FRAME":"TEME","REV_AT_EPOCH":"9722","MEAN_ANOMALY":"294.4006","LAUNCH_DATE":"2020-01-29","ECCENTRICITY":"0.00018590","MEAN_MOTION_DDOT":"0.0000000000000","PERIAPSIS":"545.974","TIME_SYSTEM":"UTC","RA_OF_ASC_NODE":"212.0225","APOAPSIS":"548.549","TLE_LINE1":"1 45054U 20006L   21307.44918965 -.00002025  00000-0 -11709-3 0  9997","EPHEMERIS_TYPE":"0","PERIOD":"95.593","TLE_LINE2":"2 45054  53.0558 212.0225 0001859  65.7177 294.4006 15.06384365 97222","RCS_SIZE":"LARGE","GP_ID":"188826844","SITE":"AFETR","MEAN_MOTION":"15.06384365","FILE":"3199758","OBJECT_ID":"2020-006L","CLASSIFICATION_TYPE":"U","DECAY_DATE":null,"OBJECT_NAME":"STARLINK-1156","BSTAR":"-0.00011709000000","ARG_OF_PERICENTER":"65.7177","NORAD_CAT_ID":"45054","COUNTRY_CODE":"US","CENTER_NAME":"EARTH","MEAN_ELEMENT_THEORY":"SGP4"},{"REF_FRAME":"TEME","MEAN_MOTION_DOT":"0.00000653","REV_AT_EPOCH":"9730","ELEMENT_SET_NO":"999","EPOCH":"2021-11-03T22:16:48.818784","INCLINATION":"53.0538","SEMIMAJOR_AXIS":"6925.354","OBJECT_TYPE":"PAYLOAD","MEAN_MOTION_DDOT":"0.0000000000000","PERIAPSIS":"546.213","MEAN_ANOMALY":"289.6045","LAUNCH_DATE":"2020-01-29","ECCENTRICITY":"0.00014520","RA_OF_ASC_NODE":"209.8649","TLE_LINE1":"1 45057U 20006P   21307.92834281  .00000653  00000-0  62761-4 0  9999","APOAPSIS":"548.224","EPHEMERIS_TYPE":"0","PERIOD":"95.592","TLE_LINE2":"2 45057  53.0538 209.8649 0001452  70.5101 289.6045 15.06398354 97308","RCS_SIZE":"LARGE","SITE":"AFETR","GP_ID":"188857369","TIME_SYSTEM":"UTC","BSTAR":"0.00006276100000","ARG_OF_PERICENTER":"70.5101","NORAD_CAT_ID":"45057","COUNTRY_CODE":"US","MEAN_ELEMENT_THEORY":"SGP4","CENTER_NAME":"EARTH","MEAN_MOTION":"15.06398354","FILE":"3200165","CLASSIFICATION_TYPE":"U","OBJECT_ID":"2020-006P","DECAY_DATE":null,"OBJECT_NAME":"STARLINK-1159"},{"REV_AT_EPOCH":"9723","MEAN_MOTION_DOT":"0.00002001","REF_FRAME":"TEME","INCLINATION":"53.0551","OBJECT_TYPE":"PAYLOAD","SEMIMAJOR_AXIS":"6925.332","EPOCH":"2021-11-03T10:57:24.853824","ELEMENT_SET_NO":"999","PERIAPSIS":"545.967","MEAN_MOTION_DDOT":"0.0000000000000","ECCENTRICITY":"0.00017750","LAUNCH_DATE":"2020-01-29","MEAN_ANOMALY":"290.9002","RCS_SIZE":"LARGE","TLE_LINE2":"2 45058  53.0551 211.9958 0001775  69.2177 290.9002 15.06405556 97230","GP_ID":"188825863","SITE":"AFETR","PERIOD":"95.592","EPHEMERIS_TYPE":"0","TLE_LINE1":"1 45058U 20006Q   21307.45653766  .00002001  00000-0  15316-3 0  9997","APOAPSIS":"548.426","RA_OF_ASC_NODE":"211.9958","TIME_SYSTEM":"UTC","MEAN_ELEMENT_THEORY":"SGP4","COUNTRY_CODE":"US","CENTER_NAME":"EARTH","BSTAR":"0.00015316000000","ARG_OF_PERICENTER":"69.2177","NORAD_CAT_ID":"45058","DECAY_DATE":null,"OBJECT_NAME":"STARLINK-1162","CLASSIFICATION_TYPE":"U","OBJECT_ID":"2020-006Q","MEAN_MOTION":"15.06405556","FILE":"3199758"},{"MEAN_ELEMENT_THEORY":"SGP4","COUNTRY_CODE":"US","CENTER_NAME":"EARTH","NORAD_CAT_ID":"45059","ARG_OF_PERICENTER":"58.6464","BSTAR":"0.00006362400000","CLASSIFICATION_TYPE":"U","OBJECT_ID":"2020-006R","OBJECT_NAME":"STARLINK-1165","DECAY_DATE":null,"MEAN_MOTION":"15.06390567","FILE":"3199758","EPHEMERIS_TYPE":"0","PERIOD":"95.593","GP_ID":"188826615","SITE":"AFETR","TLE_LINE2":"2 45059  53.0543 211.8887 0002040  58.6464 301.4724 15.06390567 97233","RCS_SIZE":"LARGE","RA_OF_ASC_NODE":"211.8887","APOAPSIS":"548.655","TLE_LINE1":"1 45059U 20006R   21307.47866660  .00000666  00000-0  63624-4 0  9990","TIME_SYSTEM":"UTC","MEAN_MOTION_DDOT":"0.0000000000000","PERIAPSIS":"545.830","ECCENTRICITY":"0.00020400","MEAN_ANOMALY":"301.4724","LAUNCH_DATE":"2020-01-29","REV_AT_EPOCH":"9723","MEAN_MOTION_DOT":"0.00000666","REF_FRAME":"TEME","OBJECT_TYPE":"PAYLOAD","SEMIMAJOR_AXIS":"6925.377","INCLINATION":"53.0543","ELEMENT_SET_NO":"999","EPOCH":"2021-11-03T11:29:16.794240"},{"EPOCH":"2021-11-03T11:23:58.998624","ELEMENT_SET_NO":"999","OBJECT_TYPE":"PAYLOAD","SEMIMAJOR_AXIS":"6925.390","INCLINATION":"53.0534","REF_FRAME":"TEME","MEAN_MOTION_DOT":"-0.00002260","REV_AT_EPOCH":"9723","LAUNCH_DATE":"2020-01-29","MEAN_ANOMALY":"285.6059","ECCENTRICITY":"0.00016750","PERIAPSIS":"546.095","MEAN_MOTION_DDOT":"0.0000000000000","TIME_SYSTEM":"UTC","TLE_LINE1":"1 45060U 20006S   21307.47498841 -.00002260  00000-0 -13291-3 0  9992","APOAPSIS":"548.415","RA_OF_ASC_NODE":"211.9116","SITE":"AFETR","GP_ID":"188826345","TLE_LINE2":"2 45060  53.0534 211.9116 0001675  74.5115 285.6059 15.06386598 97237","RCS_SIZE":"LARGE","EPHEMERIS_TYPE":"0","PERIOD":"95.593","MEAN_MOTION":"15.06386598","FILE":"3199758","OBJECT_NAME":"STARLINK-1166","DECAY_DATE":null,"CLASSIFICATION_TYPE":"U","OBJECT_ID":"2020-006S","NORAD_CAT_ID":"45060","BSTAR":"-0.00013291000000","ARG_OF_PERICENTER":"74.5115","MEAN_ELEMENT_THEORY":"SGP4","COUNTRY_CODE":"US","CENTER_NAME":"EARTH"},{"MEAN_MOTION":"15.06403548","FILE":"3200165","OBJECT_NAME":"STARLINK-1169","DECAY_DATE":null,"CLASSIFICATION_TYPE":"U","OBJECT_ID":"2020-006T","ARG_OF_PERICENTER":"73.0663","BSTAR":"0.00014260000000","NORAD_CAT_ID":"45061","MEAN_ELEMENT_THEORY":"SGP4","COUNTRY_CODE":"US","CENTER_NAME":"EARTH","TIME_SYSTEM":"UTC","TLE_LINE1":"1 45061U 20006T   21307.88042164  .00001843  00000-0  14260-3 0  9992","APOAPSIS":"548.388","RA_OF_ASC_NODE":"210.0917","TLE_LINE2":"2 45061  53.0554 210.0917 0001712  73.0663 287.0514 15.06403548 97296","RCS_SIZE":"LARGE","GP_ID":"188857870","SITE":"AFETR","EPHEMERIS_TYPE":"0","PERIOD":"95.592","LAUNCH_DATE":"2020-01-29","MEAN_ANOMALY":"287.0514","ECCENTRICITY":"0.00017120","PERIAPSIS":"546.017","MEAN_MOTION_DDOT":"0.0000000000000","EPOCH":"2021-11-03T21:07:48.429696","ELEMENT_SET_NO":"999","INCLINATION":"53.0554","SEMIMAJOR_AXIS":"6925.338","OBJECT_TYPE":"PAYLOAD","MEAN_MOTION_DOT":"0.00001843","REF_FRAME":"TEME","REV_AT_EPOCH":"9729"}];
